[{"OBJECT_NAME":"FLOCK 4BE-1","OBJECT_ID":"2024-149BC","EPOCH":"2026-03-09T18:15:18.342144","MEAN_MOTION":15.38976196,"ECCENTRICITY":0.0003136,"INCLINATION":97.3814,"RA_OF_ASC_NODE":152.8327,"ARG_OF_PERICENTER":283.1712,"MEAN_ANOMALY":76.9183,"EPHEMERIS_TYPE":0,"CLASSIFICATION_TYPE":"U","NORAD_CAT_ID":60518,"ELEMENT_SET_NO":999,"REV_AT_EPOCH":8706,"BSTAR":0.0005274728,"MEAN_MOTION_DOT":0.000203,"MEAN_MOTION_DDOT":0},{"OBJECT_NAME":"STARLINK-34695","OBJECT_ID":"2025-157N","EPOCH":"2026-03-09T22:15:17.480160","MEAN_MOTION":15.39856376,"ECCENTRICITY":8.968e-5,"INCLINATION":53.161,"RA_OF_ASC_NODE":342.1869,"ARG_OF_PERICENTER":113.2486,"MEAN_ANOMALY":246.8614,"EPHEMERIS_TYPE":0,"CLASSIFICATION_TYPE":"U","NORAD_CAT_ID":64916,"ELEMENT_SET_NO":999,"REV_AT_EPOCH":3619,"BSTAR":0.0019591216,"MEAN_MOTION_DOT":0.000794,"MEAN_MOTION_DDOT":0}]
